{
  "norad_id": 27704,
  "name": "NAVSTAR 52 (USA 168)",
  "history": [
    {
      "epoch": "2026-03-26T16:39:31.081536Z",
      "apogee_km": 20720.645893849618,
      "perigee_km": 20697.052045590557,
      "latitude_deg": 7.965701667779092,
      "longitude_deg": -100.0933105425763,
      "height_km": 20697.468820252343,
      "semi_major_axis_km": 27086.985969720088,
      "eccentricity": 0.00043552,
      "inclination_deg": 54.861,
      "raan_deg": 328.268,
      "arg_perigee_deg": 348.6904,
      "mean_anomaly_deg": 21.0754,
      "mean_motion_rev_day": 1.94742947
    }
  ]
}